{
  "norad_id": 60042,
  "name": "STARLINK-11120 [DTC]",
  "history": [
    {
      "epoch": "2026-03-28T15:00:12.481344Z",
      "apogee_km": 360.58321181710016,
      "perigee_km": 358.87179423333146,
      "latitude_deg": -3.22189002862413e-06,
      "longitude_deg": 121.92858568409709,
      "height_km": 361.00080804001027,
      "semi_major_axis_km": 6737.8645030252155,
      "eccentricity": 0.000127,
      "inclination_deg": 53.1611,
      "raan_deg": 173.0235,
      "arg_perigee_deg": 114.8498,
      "mean_anomaly_deg": 245.2652,
      "mean_motion_rev_day": 15.69709737
    },
    {
      "epoch": "2026-03-30T14:22:25.245984Z",
      "apogee_km": 360.50180247985736,
      "perigee_km": 358.9471083276376,
      "latitude_deg": -1.0865044396602292e-05,
      "longitude_deg": 119.70346954857087,
      "height_km": 360.5065851123596,
      "semi_major_axis_km": 6737.861455403747,
      "eccentricity": 0.00011537,
      "inclination_deg": 53.1599,
      "raan_deg": 163.297,
      "arg_perigee_deg": 80.2628,
      "mean_anomaly_deg": 279.852,
      "mean_motion_rev_day": 15.69710802
    },
    {
      "epoch": "2026-03-31T08:42:37.270368Z",
      "apogee_km": 360.0045442861001,
      "perigee_km": 359.4531173465066,
      "latitude_deg": -2.5465957922549284e-05,
      "longitude_deg": -159.86740237554395,
      "height_km": 360.60619614689335,
      "semi_major_axis_km": 6737.865830816303,
      "eccentricity": 4.092e-05,
      "inclination_deg": 53.1593,
      "raan_deg": 159.5293,
      "arg_perigee_deg": 82.2622,
      "mean_anomaly_deg": 277.8442,
      "mean_motion_rev_day": 15.69709273
    },
    {
      "epoch": "2026-04-01T09:09:34.349184Z",
      "apogee_km": 360.5712098091408,
      "perigee_km": 358.9406397213479,
      "latitude_deg": -2.167642486874275e-06,
      "longitude_deg": -172.63180454867867,
      "height_km": 360.3457845706372,
      "semi_major_axis_km": 6737.892924765244,
      "eccentricity": 0.000121,
      "inclination_deg": 53.159,
      "raan_deg": 154.5068,
      "arg_perigee_deg": 66.6085,
      "mean_anomaly_deg": 293.506,
      "mean_motion_rev_day": 15.69699805
    },
    {
      "epoch": "2026-04-02T20:18:16.385472Z",
      "apogee_km": 360.3814629840017,
      "perigee_km": 359.00829284728206,
      "latitude_deg": 2.657911362528877e-05,
      "longitude_deg": 11.533212744713824,
      "height_km": 360.45608371647324,
      "semi_major_axis_km": 6737.831877915642,
      "eccentricity": 0.0001019,
      "inclination_deg": 53.1585,
      "raan_deg": 147.2903,
      "arg_perigee_deg": 77.1724,
      "mean_anomaly_deg": 282.9408,
      "mean_motion_rev_day": 15.69721138
    },
    {
      "epoch": "2026-04-03T10:03:26.635392Z",
      "apogee_km": 360.6447104806848,
      "perigee_km": 358.8493339041315,
      "latitude_deg": -1.6628666184545707e-05,
      "longitude_deg": 161.84716326547817,
      "height_km": 360.54388063486607,
      "semi_major_axis_km": 6737.884022192407,
      "eccentricity": 0.00013323,
      "inclination_deg": 53.1591,
      "raan_deg": 144.4618,
      "arg_perigee_deg": 82.5495,
      "mean_anomaly_deg": 277.5674,
      "mean_motion_rev_day": 15.69702916
    },
    {
      "epoch": "2026-04-04T12:02:02.033952Z",
      "apogee_km": 360.42686559366757,
      "perigee_km": 358.84348913198755,
      "latitude_deg": -4.587122155734208e-05,
      "longitude_deg": 125.7959300289061,
      "height_km": 360.643982738826,
      "semi_major_axis_km": 6737.772177362827,
      "eccentricity": 0.0001175,
      "inclination_deg": 53.1594,
      "raan_deg": 139.1249,
      "arg_perigee_deg": 96.9127,
      "mean_anomaly_deg": 263.2024,
      "mean_motion_rev_day": 15.69742001
    },
    {
      "epoch": "2026-04-05T12:29:00.098592Z",
      "apogee_km": 360.5184063260931,
      "perigee_km": 358.92261215360486,
      "latitude_deg": -2.6807639047395218e-06,
      "longitude_deg": 113.02952105861594,
      "height_km": 360.75470169187787,
      "semi_major_axis_km": 6737.857509239849,
      "eccentricity": 0.00011842,
      "inclination_deg": 53.1593,
      "raan_deg": 134.1045,
      "arg_perigee_deg": 98.7012,
      "mean_anomaly_deg": 261.414,
      "mean_motion_rev_day": 15.69712181
    },
    {
      "epoch": "2026-04-06T02:14:09.334176Z",
      "apogee_km": 360.44112958592086,
      "perigee_km": 358.8790387099307,
      "latitude_deg": 3.964554594068538e-05,
      "longitude_deg": -96.64622789279026,
      "height_km": 360.9487401498923,
      "semi_major_axis_km": 6737.7970841479255,
      "eccentricity": 0.00011592,
      "inclination_deg": 53.1597,
      "raan_deg": 131.282,
      "arg_perigee_deg": 118.6872,
      "mean_anomaly_deg": 241.4263,
      "mean_motion_rev_day": 15.69733297
    },
    {
      "epoch": "2026-04-07T11:51:15.304896Z",
      "apogee_km": 360.76736001945574,
      "perigee_km": 358.8858510622458,
      "latitude_deg": -1.9982229879108573e-05,
      "longitude_deg": 110.79429043015938,
      "height_km": 361.07793193925835,
      "semi_major_axis_km": 6737.963605540851,
      "eccentricity": 0.00013962,
      "inclination_deg": 53.1594,
      "raan_deg": 124.3781,
      "arg_perigee_deg": 111.0581,
      "mean_anomaly_deg": 249.0586,
      "mean_motion_rev_day": 15.69675106
    },
    {
      "epoch": "2026-04-08T06:11:25.462176Z",
      "apogee_km": 360.5199259379033,
      "perigee_km": 358.9886727612129,
      "latitude_deg": 2.1724385892036188e-05,
      "longitude_deg": -168.76794189842886,
      "height_km": 360.72418798572494,
      "semi_major_axis_km": 6737.891299349558,
      "eccentricity": 0.00011363,
      "inclination_deg": 53.1593,
      "raan_deg": 120.6112,
      "arg_perigee_deg": 94.2215,
      "mean_anomaly_deg": 265.8933,
      "mean_motion_rev_day": 15.69700373
    }
  ]
}